0 THOR ABLESTAR DEB
1 03125U 61015HY  13280.87096362  .00000207  00000-0  48249-3 0  9718
2 03125 067.5602 354.1795 0311742 309.4718 157.2405 13.23955480533828
0 THOR ABLESTAR DEB
1 03125U 61015HY  13284.26012221  .00000156  00000-0  39199-3 0  9725
2 03125 067.5599 347.0184 0311688 306.9704 110.7244 13.23957646534273
0 THOR ABLESTAR DEB
1 03125U 61015HY  13285.54577697  .00000325  00000-0  69668-3 0  9733
2 03125 067.5597 344.3009 0312142 305.9759 118.5312 13.23959225534448
0 THOR ABLESTAR DEB
1 03125U 61015HY  13292.11002461  .00000231  00000-0  52681-3 0  9740
2 03125 067.5589 330.4297 0312597 301.1023 085.3891 13.23966973535318
0 THOR ABLESTAR DEB
1 03125U 61015HY  13294.23534623  .00000394  00000-0  82056-3 0  9755
2 03125 067.5591 325.9388 0312769 299.5321 135.2486 13.23968058535594
